COSMOS 2433 (720)       
1 32275U 07052A   23044.33450911 -.00000050  00000+0  00000+0 0  9996
2 32275  66.0623 356.6749 0004552 275.7229 101.0845  2.13104068119100
COSMOS 2432 (719)       
1 32276U 07052B   23044.58957764 -.00000051  00000+0  00000+0 0  9993
2 32276  66.0770 356.7710 0012261 323.0576 197.0587  2.13103399119105
COSMOS 2434 (721)       
1 32393U 07065A   23044.69458318  .00000118  00000+0  00000+0 0  9993
2 32393  64.3525 233.1997 0005182  74.4512 109.0099  2.13103145117816
COSMOS 2436 (723)       
1 32395U 07065C   23044.06616181  .00000115  00000+0  00000+0 0  9997
2 32395  64.3606 233.2807 0017010   8.8229 188.1891  2.13102886117738
COSMOS 2456 (730)       
1 36111U 09070A   23043.96683123  .00000006  00000+0  00000+0 0  9992
2 36111  64.4210 112.7930 0004087 296.8382 210.4645  2.13099102102463
COSMOS 2457 (733)       
1 36112U 09070B   23044.31646516  .00000005  00000+0  00000+0 0  9997
2 36112  64.4052 112.6511 0005312 174.7495   9.9782  2.13101265102471
COSMOS 2460 (732)       
1 36402U 10007C   23044.81809705 -.00000053  00000+0  00000+0 0  9991
2 36402  65.9291 355.4083 0002525 316.3278 239.3254  2.13106345100836
COSMOS 2476 (744)       
1 37867U 11064A   23043.47541664  .00000009  00000+0  00000+0 0  9999
2 37867  64.7047 114.2586 0022883 235.6015 162.2847  2.13101780 87809
COSMOS 2477 (745)       
1 37868U 11064B   23044.59675406  .00000005  00000+0  00000+0 0  9992
2 37868  64.7128 114.2878 0020200 236.8872 119.2274  2.13101589 87778
COSMOS 2475 (743)       
1 37869U 11064C   23044.18287956  .00000006  00000+0  00000+0 0  9998
2 37869  64.7198 114.3125 0024535 253.6942 103.1544  2.13101761 87776
COSMOS 2485 (747)       
1 39155U 13019A   23044.30416262  .00000006  00000+0  00000+0 0  9998
2 39155  64.8664 114.7105 0023420 232.2542 125.7911  2.13101812 76287
COSMOS 2492 (754)       
1 39620U 14012A   23044.21269256 -.00000051  00000+0  00000+0 0  9999
2 39620  65.8144 355.0761 0015185 320.0108   2.1732  2.13103154 69236
COSMOS 2500 (755)       
1 40001U 14032A   23044.22276412 -.00000052  00000+0  00000+0 0  9990
2 40001  65.7532 354.9173 0005908 225.2158 322.6817  2.13102439 67450
COSMOS 2501 (702K)      
1 40315U 14075A   23044.49358046  .00000116  00000+0  00000+0 0  9998
2 40315  63.6573 232.7388 0017015 204.2137   0.6012  2.13101377 63868
COSMOS 2514 (751)       
1 41330U 16008A   23044.20683240 -.00000052  00000+0  00000+0 0  9990
2 41330  65.5518 354.5514 0009538 225.5376 134.3904  2.13102576 54623
COSMOS 2516 (753)       
1 41554U 16032A   23043.85791567  .00000113  00000+0  00000+0 0  9994
2 41554  63.8844 233.1042 0013994 211.8740 148.0643  2.13106386 52225
COSMOS 2522 (752)       
1 42939U 17055A   23044.58504579  .00000117  00000+0  00000+0 0  9998
2 42939  64.1173 233.5457 0004956 237.0456 173.5579  2.13101952 41995
COSMOS 2527 (756)       
1 43508U 18053A   23044.48561172  .00000005  00000+0  00000+0 0  9997
2 43508  65.0294 114.7544 0008979 230.3909 135.8944  2.13102530 36283
COSMOS 2529 (757)       
1 43687U 18086A   23044.60155338  .00000118  00000+0  00000+0 0  9993
2 43687  64.3324 233.9261 0006900 271.6864 107.0573  2.13102072 33307
COSMOS 2534 (758)       
1 44299U 19030A   23044.09589772  .00000115  00000+0  00000+0 0  9996
2 44299  64.4054 233.8502 0009948 296.1218 189.0507  2.13101985 28937
COSMOS 2544 (759)       
1 44850U 19088A   23044.40655971  .00000006  00000+0  16595+1 0  9998
2 44850  65.0141 114.6050 0013413 256.3440  92.5565  2.13102264 24709
COSMOS 2545 (760)       
1 45358U 20018A   23044.38234953 -.00000054  00000+0  00000+0 0  9994
2 45358  64.8914 354.9558 0010482 259.5928 279.9298  2.13102672 22669
COSMOS 2547 (705K)      
1 46805U 20075A   23044.78954315  .00000119  00000+0  00000+0 0  9991
2 46805  64.6307 233.3225 0005117 241.2801 104.5398  2.13103048 17913
COSMOS 2557 (706K)      
1 52984U 22075A   23044.26441052 -.00000052  00000+0  10000-3 0  9992
2 52984  64.8006 357.1416 0013758 285.3115 254.4156  2.13101822  4708
COSMOS 2559 (707K)      
1 54031U 22130A   23044.58238825 -.00000053  00000+0  00000+0 0  9992
2 54031  64.7710 357.2651 0006581 239.4816 229.3498  2.13101019  2694
COSMOS 2564 (761)       
1 54377U 22161A   23044.33512994  .00000118  00000+0  00000+0 0  9995
2 54377  64.7717 233.3543 0006654 209.1598 280.4491  2.13102312  1631
